{
  "type": "FeatureCollection",
  "features": [
    {
      "type": "Feature",
      "properties": {
        "norad_id": 37781,
        "name": "HAIYANG-2A",
        "group": "resource",
        "lat": 12.320154650574077,
        "lon": -177.9078114760887,
        "alt_km": 969.3216632673402,
        "timestamp": "2025-12-25T07:00:33.699441+00:00",
        "meta_object_name": "HAIYANG-2A",
        "meta_object_id": "2011-043A",
        "meta_epoch": "2025-12-24T23:14:03.031296",
        "meta_mean_motion": 13.78836515,
        "meta_eccentricity": 0.00015732,
        "meta_inclination": 99.3377,
        "meta_ra_of_asc_node": 359.7139,
        "meta_arg_of_pericenter": 68.2559,
        "meta_mean_anomaly": 291.876,
        "meta_ephemeris_type": 0,
        "meta_classification_type": "U",
        "meta_norad_cat_id": 37781,
        "meta_element_set_no": 999,
        "meta_rev_at_epoch": 72267,
        "meta_bstar": 6.6150425e-05,
        "meta_mean_motion_dot": 2.3e-07,
        "meta_mean_motion_ddot": 0,
        "tle_line1": "1 37781U 11043A   25358.96809064  .00000023  00000+0  66150-4 0  9996",
        "tle_line2": "2 37781  99.3377 359.7139 0001573  68.2559 291.8760 13.78836515722678"
      },
      "geometry": {
        "type": "Point",
        "coordinates": [
          -177.9078114760887,
          12.320154650574077
        ]
      }
    },
    {
      "type": "Feature",
      "properties": {
        "norad_id": 37791,
        "name": "RASAT",
        "group": "resource",
        "lat": -17.235820671063063,
        "lon": 90.88426279893744,
        "alt_km": 661.8888015714656,
        "timestamp": "2025-12-25T07:00:33.699451+00:00",
        "meta_object_name": "RASAT",
        "meta_object_id": "2011-044D",
        "meta_epoch": "2025-12-24T23:25:43.558176",
        "meta_mean_motion": 14.67925281,
        "meta_eccentricity": 0.00213085,
        "meta_inclination": 98.0645,
        "meta_ra_of_asc_node": 88.0521,
        "meta_arg_of_pericenter": 28.0624,
        "meta_mean_anomaly": 86.6519,
        "meta_ephemeris_type": 0,
        "meta_classification_type": "U",
        "meta_norad_cat_id": 37791,
        "meta_element_set_no": 999,
        "meta_rev_at_epoch": 76762,
        "meta_bstar": 0.0001131332,
        "meta_mean_motion_dot": 6e-06,
        "meta_mean_motion_ddot": 0,
        "tle_line1": "1 37791U 11044D   25358.97619859  .00000600  00000+0  11313-3 0  9991",
        "tle_line2": "2 37791  98.0645  88.0521 0021308  28.0624  86.6519 14.67925281767629"
      },
      "geometry": {
        "type": "Point",
        "coordinates": [
          90.88426279893744,
          -17.235820671063063
        ]
      }
    },
    {
      "type": "Feature",
      "properties": {
        "norad_id": 37841,
        "name": "SRMSAT",
        "group": "resource",
        "lat": -19.83043314524467,
        "lon": -51.174080111658995,
        "alt_km": 862.679661192582,
        "timestamp": "2025-12-25T07:00:33.699462+00:00",
        "meta_object_name": "SRMSAT",
        "meta_object_id": "2011-058D",
        "meta_epoch": "2025-12-24T18:34:49.624608",
        "meta_mean_motion": 14.11515378,
        "meta_eccentricity": 0.00119944,
        "meta_inclination": 19.973,
        "meta_ra_of_asc_node": 35.1176,
        "meta_arg_of_pericenter": 85.055,
        "meta_mean_anomaly": 74.1634,
        "meta_ephemeris_type": 0,
        "meta_classification_type": "U",
        "meta_norad_cat_id": 37841,
        "meta_element_set_no": 999,
        "meta_rev_at_epoch": 73314,
        "meta_bstar": 8.7140631e-05,
        "meta_mean_motion_dot": 4.25e-06,
        "meta_mean_motion_ddot": 0,
        "tle_line1": "1 37841U 11058D   25358.77418547  .00000425  00000+0  87141-4 0  9999",
        "tle_line2": "2 37841  19.9730  35.1176 0011994  85.0550  74.1634 14.11515378733143"
      },
      "geometry": {
        "type": "Point",
        "coordinates": [
          -51.174080111658995,
          -19.83043314524467
        ]
      }
    },
    {
      "type": "Feature",
      "properties": {
        "norad_id": 38012,
        "name": "PLEIADES 1A",
        "group": "resource",
        "lat": 73.9422830389362,
        "lon": 41.880629328497655,
        "alt_km": 689.946955486048,
        "timestamp": "2025-12-25T07:00:33.699472+00:00",
        "meta_object_name": "PLEIADES 1A",
        "meta_object_id": "2011-076F",
        "meta_epoch": "2025-12-24T22:54:09.237312",
        "meta_mean_motion": 14.58571774,
        "meta_eccentricity": 0.00010838,
        "meta_inclination": 98.1808,
        "meta_ra_of_asc_node": 71.5337,
        "meta_arg_of_pericenter": 75.7197,
        "meta_mean_anomaly": 27.8438,
        "meta_ephemeris_type": 0,
        "meta_classification_type": "U",
        "meta_norad_cat_id": 38012,
        "meta_element_set_no": 999,
        "meta_rev_at_epoch": 74659,
        "meta_bstar": 7.907043e-05,
        "meta_mean_motion_dot": 3.22e-06,
        "meta_mean_motion_ddot": 0,
        "tle_line1": "1 38012U 11076F   25358.95427358  .00000322  00000+0  79070-4 0  9998",
        "tle_line2": "2 38012  98.1808  71.5337 0001083  75.7197  27.8438 14.58571774746596"
      },
      "geometry": {
        "type": "Point",
        "coordinates": [
          41.880629328497655,
          73.9422830389362
        ]
      }
    },
    {
      "type": "Feature",
      "properties": {
        "norad_id": 38038,
        "name": "ZIYUAN 1-02C (ZY 1-02C)",
        "group": "resource",
        "lat": 42.34431704282066,
        "lon": -107.15782290928937,
        "alt_km": 756.9253833049543,
        "timestamp": "2025-12-25T07:00:33.699483+00:00",
        "meta_object_name": "ZIYUAN 1-02C (ZY 1-02C)",
        "meta_object_id": "2011-079A",
        "meta_epoch": "2025-12-25T00:15:47.304288",
        "meta_mean_motion": 14.38024879,
        "meta_eccentricity": 0.00075647,
        "meta_inclination": 98.4315,
        "meta_ra_of_asc_node": 64.7976,
        "meta_arg_of_pericenter": 106.5266,
        "meta_mean_anomaly": 16.0847,
        "meta_ephemeris_type": 0,
        "meta_classification_type": "U",
        "meta_norad_cat_id": 38038,
        "meta_element_set_no": 999,
        "meta_rev_at_epoch": 73417,
        "meta_bstar": 0.00013598224,
        "meta_mean_motion_dot": 3.68e-06,
        "meta_mean_motion_ddot": 0,
        "tle_line1": "1 38038U 11079A   25359.01096417  .00000368  00000+0  13598-3 0  9997",
        "tle_line2": "2 38038  98.4315  64.7976 0007564 106.5266  16.0847 14.38024879734175"
      },
      "geometry": {
        "type": "Point",
        "coordinates": [
          -107.15782290928937,
          42.34431704282066
        ]
      }
    },
    {
      "type": "Feature",
      "properties": {
        "norad_id": 38338,
        "name": "ARIRANG-3 (KOMPSAT-3)",
        "group": "resource",
        "lat": 62.68768874664596,
        "lon": 150.46781431543977,
        "alt_km": 684.7988227411561,
        "timestamp": "2025-12-25T07:00:33.699494+00:00",
        "meta_object_name": "ARIRANG-3 (KOMPSAT-3)",
        "meta_object_id": "2012-025B",
        "meta_epoch": "2025-12-24T22:15:56.664288",
        "meta_mean_motion": 14.61728069,
        "meta_eccentricity": 0.00047036,
        "meta_inclination": 98.334,
        "meta_ra_of_asc_node": 313.6101,
        "meta_arg_of_pericenter": 294.9098,
        "meta_mean_anomaly": 65.1614,
        "meta_ephemeris_type": 0,
        "meta_classification_type": "U",
        "meta_norad_cat_id": 38338,
        "meta_element_set_no": 999,
        "meta_rev_at_epoch": 72588,
        "meta_bstar": 0.00012866232,
        "meta_mean_motion_dot": 5.93e-06,
        "meta_mean_motion_ddot": 0,
        "tle_line1": "1 38338U 12025B   25358.92773917  .00000593  00000+0  12866-3 0  9995",
        "tle_line2": "2 38338  98.3340 313.6101 0004703 294.9098  65.1614 14.61728069725881"
      },
      "geometry": {
        "type": "Point",
        "coordinates": [
          150.46781431543977,
          62.68768874664596
        ]
      }
    },
    {
      "type": "Feature",
      "properties": {
        "norad_id": 38709,
        "name": "EXACTVIEW-1 (ADS-1B)",
        "group": "resource",
        "lat": -71.11545357456006,
        "lon": -99.53291779637017,
        "alt_km": 812.7614105195626,
        "timestamp": "2025-12-25T07:00:33.699504+00:00",
        "meta_object_name": "EXACTVIEW-1 (ADS-1B)",
        "meta_object_id": "2012-039C",
        "meta_epoch": "2025-12-24T19:42:42.645024",
        "meta_mean_motion": 14.2491263,
        "meta_eccentricity": 0.00101426,
        "meta_inclination": 98.9638,
        "meta_ra_of_asc_node": 107.4649,
        "meta_arg_of_pericenter": 317.9424,
        "meta_mean_anomaly": 42.0975,
        "meta_ephemeris_type": 0,
        "meta_classification_type": "U",
        "meta_norad_cat_id": 38709,
        "meta_element_set_no": 999,
        "meta_rev_at_epoch": 69787,
        "meta_bstar": 8.4450506e-05,
        "meta_mean_motion_dot": 1.51e-06,
        "meta_mean_motion_ddot": 0,
        "tle_line1": "1 38709U 12039C   25358.82132691  .00000151  00000+0  84451-4 0  9999",
        "tle_line2": "2 38709  98.9638 107.4649 0010142 317.9424  42.0975 14.24912630697877"
      },
      "geometry": {
        "type": "Point",
        "coordinates": [
          -99.53291779637017,
          -71.11545357456006
        ]
      }
    }
  ]
}